SEASAT 1                
1 10967U 78064A   23258.27471290  .00000666  00000+0  23191-3 0  9996
2 10967 107.9949  26.6359 0001628 236.8440 123.2549 14.44502991375548
METEOR 1-29             
1 11251U 79005A   23258.56638655  .00045859  00000+0  43296-3 0  9992
2 11251  97.7536 270.1588 0009663 152.3334 207.8441 15.66851944991537
SL-14 R/B               
1 11267U 79011B   23258.47453239  .00000891  00000+0  90121-4 0  9996
2 11267  82.5232 234.9555 0016127 195.4848 164.5879 14.89810556393754
SL-8 R/B                
1 11574U 79089B   23258.58995851  .00000392  00000+0  12945-3 0  9998
2 11574  74.0710 326.8668 0015855   5.9165 354.2175 14.41234237305510
SL-14 R/B               
1 11672U 80005B   23258.56550378  .00000806  00000+0  83260-4 0  9995
2 11672  82.5119  85.3511 0015101 304.2148  55.7638 14.88836124341566
SL-8 R/B                
1 12139U 81003B   23258.41490782  .00013312  00000+0  54239-3 0  9998
2 12139  82.9464  23.6000 0398439   0.8084 359.3680 14.73674261179617
SL-3 R/B                
1 12465U 81046B   23258.50688920  .00004658  00000+0  21069-3 0  9998
2 12465  81.2372 278.0286 0028962 242.3113 117.5179 15.20331578299847
METEOR PRIRODA          
1 12585U 81065A   23258.58372108  .00009304  00000+0  30956-3 0  9996
2 12585  97.5736 275.7214 0010668 345.3002  14.7927 15.31330230303632
SL-3 R/B                
1 12904U 81103B   23258.50990504  .00003578  00000+0  21987-3 0  9993
2 12904  81.1788 186.3022 0024402  87.7633 272.6386 15.09583890836008
SL-3 R/B                
1 13068U 82013B   23258.51423294  .00003063  00000+0  18038-3 0  9996
2 13068  81.1816 133.8380 0027821 333.7225  26.2587 15.11015631267016
SL-3 R/B                
1 13154U 82039B   23258.54694447  .00002951  00000+0  22159-3 0  9997
2 13154  81.1855 171.7992 0039061  57.3699 303.1282 15.01711258245256
SL-3 R/B                
1 13403U 82079B   23258.51457737  .00005293  00000+0  30946-3 0  9999
2 13403  81.1532 171.6464 0030587 327.1249  32.8073 15.11314451240233
COSMOS 1408             
1 13552U 82092A   23258.26636696  .00024923  00000+0  52290-3 0  9991
2 13552  82.5703 168.4219 0017402 272.4494  87.4762 15.45073042102648
SL-14 R/B               
1 13553U 82092B   23258.55735705  .00000701  00000+0  79097-4 0  9998
2 13553  82.5649 267.9568 0022515  65.8105  56.5571 14.84930502194375
SL-3 R/B                
1 13819U 83010B   23258.40911767  .00007823  00000+0  33813-3 0  9999
2 13819  81.1166  10.4952 0026275 275.3355  84.4879 15.22021952219102
SL-3 R/B                
1 14208U 83075B   23258.52880019  .00005299  00000+0  26823-3 0  9999
2 14208  97.5365 232.8004 0034457 173.5350 186.6335 15.16921470191883
