[{"OBJECT_NAME":"SEASAT 1","OBJECT_ID":"1978-064A","EPOCH":"2023-09-15T06:35:35.194560","MEAN_MOTION":14.44502991,"ECCENTRICITY":0.0001628,"INCLINATION":107.9949,"RA_OF_ASC_NODE":26.6359,"ARG_OF_PERICENTER":236.844,"MEAN_ANOMALY":123.2549,"EPHEMERIS_TYPE":0,"CLASSIFICATION_TYPE":"U","NORAD_CAT_ID":10967,"ELEMENT_SET_NO":999,"REV_AT_EPOCH":37554,"BSTAR":0.00023191,"MEAN_MOTION_DOT":6.66e-6,"MEAN_MOTION_DDOT":0},{"OBJECT_NAME":"METEOR 1-29","OBJECT_ID":"1979-005A","EPOCH":"2023-09-15T13:35:35.797920","MEAN_MOTION":15.66851944,"ECCENTRICITY":0.0009663,"INCLINATION":97.7536,"RA_OF_ASC_NODE":270.1588,"ARG_OF_PERICENTER":152.3334,"MEAN_ANOMALY":207.8441,"EPHEMERIS_TYPE":0,"CLASSIFICATION_TYPE":"U","NORAD_CAT_ID":11251,"ELEMENT_SET_NO":999,"REV_AT_EPOCH":99153,"BSTAR":0.00043296,"MEAN_MOTION_DOT":0.00045859,"MEAN_MOTION_DDOT":0},{"OBJECT_NAME":"SL-14 R\/B","OBJECT_ID":"1979-011B","EPOCH":"2023-09-15T11:23:19.598496","MEAN_MOTION":14.89810556,"ECCENTRICITY":0.0016127,"INCLINATION":82.5232,"RA_OF_ASC_NODE":234.9555,"ARG_OF_PERICENTER":195.4848,"MEAN_ANOMALY":164.5879,"EPHEMERIS_TYPE":0,"CLASSIFICATION_TYPE":"U","NORAD_CAT_ID":11267,"ELEMENT_SET_NO":999,"REV_AT_EPOCH":39375,"BSTAR":9.0121e-5,"MEAN_MOTION_DOT":8.91e-6,"MEAN_MOTION_DDOT":0},{"OBJECT_NAME":"SL-8 R\/B","OBJECT_ID":"1979-089B","EPOCH":"2023-09-15T14:09:32.415264","MEAN_MOTION":14.41234237,"ECCENTRICITY":0.0015855,"INCLINATION":74.071,"RA_OF_ASC_NODE":326.8668,"ARG_OF_PERICENTER":5.9165,"MEAN_ANOMALY":354.2175,"EPHEMERIS_TYPE":0,"CLASSIFICATION_TYPE":"U","NORAD_CAT_ID":11574,"ELEMENT_SET_NO":999,"REV_AT_EPOCH":30551,"BSTAR":0.00012945,"MEAN_MOTION_DOT":3.92e-6,"MEAN_MOTION_DDOT":0},{"OBJECT_NAME":"SL-14 R\/B","OBJECT_ID":"1980-005B","EPOCH":"2023-09-15T13:34:19.526592","MEAN_MOTION":14.88836124,"ECCENTRICITY":0.0015101,"INCLINATION":82.5119,"RA_OF_ASC_NODE":85.3511,"ARG_OF_PERICENTER":304.2148,"MEAN_ANOMALY":55.7638,"EPHEMERIS_TYPE":0,"CLASSIFICATION_TYPE":"U","NORAD_CAT_ID":11672,"ELEMENT_SET_NO":999,"REV_AT_EPOCH":34156,"BSTAR":8.326e-5,"MEAN_MOTION_DOT":8.06e-6,"MEAN_MOTION_DDOT":0},{"OBJECT_NAME":"SL-8 R\/B","OBJECT_ID":"1981-003B","EPOCH":"2023-09-15T09:57:28.035648","MEAN_MOTION":14.73674261,"ECCENTRICITY":0.0398439,"INCLINATION":82.9464,"RA_OF_ASC_NODE":23.6,"ARG_OF_PERICENTER":0.8084,"MEAN_ANOMALY":359.368,"EPHEMERIS_TYPE":0,"CLASSIFICATION_TYPE":"U","NORAD_CAT_ID":12139,"ELEMENT_SET_NO":999,"REV_AT_EPOCH":17961,"BSTAR":0.00054239,"MEAN_MOTION_DOT":0.00013312,"MEAN_MOTION_DDOT":0},{"OBJECT_NAME":"SL-3 R\/B","OBJECT_ID":"1981-046B","EPOCH":"2023-09-15T12:09:55.226880","MEAN_MOTION":15.20331578,"ECCENTRICITY":0.0028962,"INCLINATION":81.2372,"RA_OF_ASC_NODE":278.0286,"ARG_OF_PERICENTER":242.3113,"MEAN_ANOMALY":117.5179,"EPHEMERIS_TYPE":0,"CLASSIFICATION_TYPE":"U","NORAD_CAT_ID":12465,"ELEMENT_SET_NO":999,"REV_AT_EPOCH":29984,"BSTAR":0.00021069,"MEAN_MOTION_DOT":4.658e-5,"MEAN_MOTION_DDOT":0},{"OBJECT_NAME":"METEOR PRIRODA","OBJECT_ID":"1981-065A","EPOCH":"2023-09-15T14:00:33.501312","MEAN_MOTION":15.3133023,"ECCENTRICITY":0.0010668,"INCLINATION":97.5736,"RA_OF_ASC_NODE":275.7214,"ARG_OF_PERICENTER":345.3002,"MEAN_ANOMALY":14.7927,"EPHEMERIS_TYPE":0,"CLASSIFICATION_TYPE":"U","NORAD_CAT_ID":12585,"ELEMENT_SET_NO":999,"REV_AT_EPOCH":30363,"BSTAR":0.00030956,"MEAN_MOTION_DOT":9.304e-5,"MEAN_MOTION_DDOT":0},{"OBJECT_NAME":"SL-3 R\/B","OBJECT_ID":"1981-103B","EPOCH":"2023-09-15T12:14:15.795456","MEAN_MOTION":15.0958389,"ECCENTRICITY":0.0024402,"INCLINATION":81.1788,"RA_OF_ASC_NODE":186.3022,"ARG_OF_PERICENTER":87.7633,"MEAN_ANOMALY":272.6386,"EPHEMERIS_TYPE":0,"CLASSIFICATION_TYPE":"U","NORAD_CAT_ID":12904,"ELEMENT_SET_NO":999,"REV_AT_EPOCH":83600,"BSTAR":0.00021987,"MEAN_MOTION_DOT":3.578e-5,"MEAN_MOTION_DDOT":0},{"OBJECT_NAME":"SL-3 R\/B","OBJECT_ID":"1982-013B","EPOCH":"2023-09-15T12:20:29.726016","MEAN_MOTION":15.11015631,"ECCENTRICITY":0.0027821,"INCLINATION":81.1816,"RA_OF_ASC_NODE":133.838,"ARG_OF_PERICENTER":333.7225,"MEAN_ANOMALY":26.2587,"EPHEMERIS_TYPE":0,"CLASSIFICATION_TYPE":"U","NORAD_CAT_ID":13068,"ELEMENT_SET_NO":999,"REV_AT_EPOCH":26701,"BSTAR":0.00018038,"MEAN_MOTION_DOT":3.063e-5,"MEAN_MOTION_DDOT":0},{"OBJECT_NAME":"SL-3 R\/B","OBJECT_ID":"1982-039B","EPOCH":"2023-09-15T13:07:36.002208","MEAN_MOTION":15.01711258,"ECCENTRICITY":0.0039061,"INCLINATION":81.1855,"RA_OF_ASC_NODE":171.7992,"ARG_OF_PERICENTER":57.3699,"MEAN_ANOMALY":303.1282,"EPHEMERIS_TYPE":0,"CLASSIFICATION_TYPE":"U","NORAD_CAT_ID":13154,"ELEMENT_SET_NO":999,"REV_AT_EPOCH":24525,"BSTAR":0.00022159,"MEAN_MOTION_DOT":2.951e-5,"MEAN_MOTION_DDOT":0},{"OBJECT_NAME":"SL-3 R\/B","OBJECT_ID":"1982-079B","EPOCH":"2023-09-15T12:20:59.484768","MEAN_MOTION":15.11314451,"ECCENTRICITY":0.0030587,"INCLINATION":81.1532,"RA_OF_ASC_NODE":171.6464,"ARG_OF_PERICENTER":327.1249,"MEAN_ANOMALY":32.8073,"EPHEMERIS_TYPE":0,"CLASSIFICATION_TYPE":"U","NORAD_CAT_ID":13403,"ELEMENT_SET_NO":999,"REV_AT_EPOCH":24023,"BSTAR":0.00030946,"MEAN_MOTION_DOT":5.293e-5,"MEAN_MOTION_DDOT":0},{"OBJECT_NAME":"COSMOS 1408","OBJECT_ID":"1982-092A","EPOCH":"2023-09-15T06:23:34.105344","MEAN_MOTION":15.45073042,"ECCENTRICITY":0.0017402,"INCLINATION":82.5703,"RA_OF_ASC_NODE":168.4219,"ARG_OF_PERICENTER":272.4494,"MEAN_ANOMALY":87.4762,"EPHEMERIS_TYPE":0,"CLASSIFICATION_TYPE":"U","NORAD_CAT_ID":13552,"ELEMENT_SET_NO":999,"REV_AT_EPOCH":10264,"BSTAR":0.0005229,"MEAN_MOTION_DOT":0.00024923,"MEAN_MOTION_DDOT":0},{"OBJECT_NAME":"SL-14 R\/B","OBJECT_ID":"1982-092B","EPOCH":"2023-09-15T13:22:35.649120","MEAN_MOTION":14.84930502,"ECCENTRICITY":0.0022515,"INCLINATION":82.5649,"RA_OF_ASC_NODE":267.9568,"ARG_OF_PERICENTER":65.8105,"MEAN_ANOMALY":56.5571,"EPHEMERIS_TYPE":0,"CLASSIFICATION_TYPE":"U","NORAD_CAT_ID":13553,"ELEMENT_SET_NO":999,"REV_AT_EPOCH":19437,"BSTAR":7.9097e-5,"MEAN_MOTION_DOT":7.01e-6,"MEAN_MOTION_DDOT":0},{"OBJECT_NAME":"SL-3 R\/B","OBJECT_ID":"1983-010B","EPOCH":"2023-09-15T09:49:07.766688","MEAN_MOTION":15.22021952,"ECCENTRICITY":0.0026275,"INCLINATION":81.1166,"RA_OF_ASC_NODE":10.4952,"ARG_OF_PERICENTER":275.3355,"MEAN_ANOMALY":84.4879,"EPHEMERIS_TYPE":0,"CLASSIFICATION_TYPE":"U","NORAD_CAT_ID":13819,"ELEMENT_SET_NO":999,"REV_AT_EPOCH":21910,"BSTAR":0.00033813,"MEAN_MOTION_DOT":7.823e-5,"MEAN_MOTION_DDOT":0},{"OBJECT_NAME":"SL-3 R\/B","OBJECT_ID":"1983-075B","EPOCH":"2023-09-15T12:41:28.336416","MEAN_MOTION":15.1692147,"ECCENTRICITY":0.0034457,"INCLINATION":97.5365,"RA_OF_ASC_NODE":232.8004,"ARG_OF_PERICENTER":173.535,"MEAN_ANOMALY":186.6335,"EPHEMERIS_TYPE":0,"CLASSIFICATION_TYPE":"U","NORAD_CAT_ID":14208,"ELEMENT_SET_NO":999,"REV_AT_EPOCH":19188,"BSTAR":0.00026823,"MEAN_MOTION_DOT":5.299e-5,"MEAN_MOTION_DDOT":0}]
